     2.10           G: GLONASS NAV DATA                     RINEX VERSION / TYPE
teqc  2015Jun23                         20211021 01:25:46UTCPGM / RUN BY / DATE
Linux 2.4.21-27.ELsmp|Opteron|gcc -static|Linux x86_64|=+   COMMENT
  2021     9    27    1.396983861923D-09                    CORR TO SYSTEM TIME
                                                            END OF HEADER
10 21  9 28 22 45  0.0-7.544457912445D-05 0.000000000000D+00 8.100000000000D+04
    2.518090332031D+03 9.737777709961D-02-0.000000000000D+00 0.000000000000D+00
    2.526182080078D+04-4.077634811401D-01 9.313225746155D-10-7.000000000000D+00
   -2.841204589844D+03-3.533731460571D+00 1.862645149231D-09 0.000000000000D+00
 6 21  9 28 22 45  0.0-6.550922989845D-06-1.818989403546D-12 8.100000000000D+04
   -1.734200634766D+04-5.257616043091D-01-0.000000000000D+00 0.000000000000D+00
    1.780030126953D+04 6.124725341797D-01 9.313225746155D-10-4.000000000000D+00
   -5.826835449219D+03 3.443058967590D+00 1.862645149231D-09 0.000000000000D+00
 7 21  9 28 22 45  0.0-4.095584154129D-05 0.000000000000D+00 8.100000000000D+04
   -4.918485351562D+03-2.067058563232D+00 0.000000000000D+00 0.000000000000D+00
    1.558861962891D+04 1.716086387634D+00-0.000000000000D+00 5.000000000000D+00
   -1.956946337891D+04 1.879008293152D+00 2.793967723846D-09 0.000000000000D+00
 9 21  9 28 22 45  0.0 1.559965312481D-05 1.818989403546D-12 8.100000000000D+04
   -5.813057617188D+03-2.953872680664D-01 0.000000000000D+00 0.000000000000D+00
    1.785690332031D+04-2.344048500061D+00-0.000000000000D+00-2.000000000000D+00
   -1.720330517578D+04-2.337025642395D+00 2.793967723846D-09 0.000000000000D+00
10 21  9 28 23 15  0.0-7.544457912445D-05 0.000000000000D+00 8.280000000000D+04
    2.453779296875D+03-2.042722702026D-01-0.000000000000D+00 0.000000000000D+00
    2.377453613281D+04-1.223261833191D+00 0.000000000000D+00-7.000000000000D+00
   -9.010688476562D+03-3.276909828186D+00 2.793967723846D-09 0.000000000000D+00
21 21  9 28 23 15  0.0-2.427920699120D-04-2.728484105319D-12 8.280000000000D+04
    2.518701660156D+03-2.998085021973D+00-0.000000000000D+00 0.000000000000D+00
    1.126981542969D+04-8.612480163574D-01 2.793967723846D-09 4.000000000000D+00
    2.274804638672D+04 7.551565170288D-01-0.000000000000D+00 0.000000000000D+00
 6 21  9 28 23 15  0.0-6.554648280144D-06-1.818989403546D-12 8.280000000000D+04
   -1.765385693359D+04 1.562414169312D-01-0.000000000000D+00 0.000000000000D+00
    1.842383837891D+04 4.685497283936D-02 9.313225746155D-10-4.000000000000D+00
    5.156069335938D+02 3.558423995972D+00 1.862645149231D-09 0.000000000000D+00
 7 21  9 28 23 15  0.0-4.095584154129D-05 0.000000000000D+00 8.280000000000D+04
   -8.053916503906D+03-1.404401779175D+00-0.000000000000D+00 0.000000000000D+00
    1.861169189453D+04 1.596934318542D+00-0.000000000000D+00 5.000000000000D+00
   -1.547392089844D+04 2.641886711121D+00 2.793967723846D-09 0.000000000000D+00
 9 21  9 28 23 15  0.0 1.560244709253D-05 1.818989403546D-12 8.280000000000D+04
   -6.750386718750D+03-7.580137252808D-01 0.000000000000D+00 0.000000000000D+00
    1.324341552734D+04-2.735575675964D+00-9.313225746155D-10-2.000000000000D+00
   -2.068735742188D+04-1.509010314941D+00 1.862645149231D-09 0.000000000000D+00
 8 21  9 28 23 15  0.0-6.119627505541D-05-0.000000000000D+00 8.445000000000D+04
    6.009416015625D+03-2.201162338257D+00 0.000000000000D+00 0.000000000000D+00
    9.388747558594D+03 2.250986099243D+00-9.313225746155D-10 6.000000000000D+00
   -2.289639990234D+04 3.421773910522D-01 1.862645149231D-09 0.000000000000D+00
10 21  9 28 23 45  0.0-7.544457912445D-05 0.000000000000D+00 8.460000000000D+04
    1.674193359375D+03-6.856164932251D-01-0.000000000000D+00 0.000000000000D+00
    2.096471826172D+04-1.861997604370D+00-0.000000000000D+00-7.000000000000D+00
   -1.448617285156D+04-2.767559051514D+00 2.793967723846D-09 0.000000000000D+00
 8 21  9 28 23 45  0.0-6.119813770056D-05-0.000000000000D+00 8.460000000000D+04
    2.449888671875D+03-1.727982521057D+00-0.000000000000D+00 0.000000000000D+00
    1.359830273438D+04 2.381793022156D+00-9.313225746155D-10 6.000000000000D+00
   -2.139931689453D+04 1.310280799866D+00 2.793967723846D-09 0.000000000000D+00
 6 21  9 28 23 45  0.0-6.558373570442D-06-1.818989403546D-12 8.460000000000D+04
   -1.688790673828D+04 6.587495803833D-01 0.000000000000D+00 0.000000000000D+00
    1.787261572266D+04-6.783561706543D-01 1.862645149231D-09-4.000000000000D+00
    6.818206054688D+03 3.399029731750D+00 9.313225746155D-10 0.000000000000D+00
 7 21  9 28 23 45  0.0-4.095584154129D-05 0.000000000000D+00 8.460000000000D+04
   -9.964042968750D+03-7.245254516602D-01-0.000000000000D+00 0.000000000000D+00
    2.117278222656D+04 1.204659461975D+00 0.000000000000D+00 5.000000000000D+00
   -1.018199267578D+04 3.199772834778D+00 2.793967723846D-09 0.000000000000D+00
 9 21  9 28 23 45  0.0 1.560524106026D-05 1.818989403546D-12 8.460000000000D+04
   -8.553407714844D+03-1.239600181580D+00-0.000000000000D+00 0.000000000000D+00
    8.184854003906D+03-2.835269927979D+00-9.313225746155D-10-2.000000000000D+00
   -2.256580078125D+04-5.647220611572D-01 1.862645149231D-09 0.000000000000D+00
